[
    {
        "CCSDS_OMM_VERS": "3.0",
        "COMMENT": "GENERATED VIA SPACE-TRACK.ORG API",
        "CREATION_DATE": "2025-05-03T02:26:48",
        "ORIGINATOR": "18 SPCS",
        "OBJECT_NAME": "GALILEO 9 (205)",
        "OBJECT_ID": "2015-045A",
        "CENTER_NAME": "EARTH",
        "REF_FRAME": "TEME",
        "TIME_SYSTEM": "UTC",
        "MEAN_ELEMENT_THEORY": "SGP4",
        "EPOCH": "2025-05-02T15:03:19.398240",
        "MEAN_MOTION": "1.70474053",
        "ECCENTRICITY": "0.00042520",
        "INCLINATION": "55.0837",
        "RA_OF_ASC_NODE": "232.9447",
        "ARG_OF_PERICENTER": "45.5957",
        "MEAN_ANOMALY": "314.4437",
        "EPHEMERIS_TYPE": "0",
        "CLASSIFICATION_TYPE": "U",
        "NORAD_CAT_ID": "40889",
        "ELEMENT_SET_NO": "999",
        "REV_AT_EPOCH": "6001",
        "BSTAR": "0.00000000000000",
        "MEAN_MOTION_DOT": "-0.00000024",
        "MEAN_MOTION_DDOT": "0.0000000000000",
        "SEMIMAJOR_AXIS": "29600.314",
        "PERIOD": "844.703",
        "APOAPSIS": "23234.765",
        "PERIAPSIS": "23209.593",
        "OBJECT_TYPE": "PAYLOAD",
        "RCS_SIZE": "LARGE",
        "COUNTRY_CODE": "ESA",
        "LAUNCH_DATE": "2015-09-11",
        "SITE": "FRGUI",
        "DECAY_DATE": null,
        "FILE": "4717276",
        "GP_ID": "286714359",
        "TLE_LINE0": "0 GALILEO 9 (205)",
        "TLE_LINE1": "1 40889U 15045A   25122.62730785 -.00000024  00000-0  00000-0 0  9991",
        "TLE_LINE2": "2 40889  55.0837 232.9447 0004252  45.5957 314.4437  1.70474053 60012"
    }
]